{"fetched_at":"2026-07-21T17:53:23.418Z","source":"https://celestrak.org/NORAD/elements/gp.php?NAME=EROS&FORMAT=JSON","constellation":"eros","records":[{"OBJECT_NAME":"EROS C3","OBJECT_ID":"2022-179A","EPOCH":"2026-07-20T19:09:42.616224","CLASSIFICATION_TYPE":"U","MEAN_MOTION":15.11064739,"ECCENTRICITY":0.00083531,"INCLINATION":139.3351,"RA_OF_ASC_NODE":196.9042,"ARG_OF_PERICENTER":217.9746,"MEAN_ANOMALY":142.0473,"EPHEMERIS_TYPE":0,"NORAD_CAT_ID":54880,"ELEMENT_SET_NO":999,"REV_AT_EPOCH":19741,"BSTAR":0.00017966661,"MEAN_MOTION_DOT":0.00003306,"MEAN_MOTION_DDOT":0}]}
