EROS C3                 
1 54880U 22179A   26201.79840991  .00003306  00000+0  17967-3 0  9998
2 54880 139.3351 196.9042 0008353 217.9746 142.0473 15.11064739197418
